[Satellite]
VERSION=1.1
NAME=ORBCOMM FM18 [+]
NICKNAME=ORBCOMM FM18 [+]
TLE1=1 25414U 98046B   15055.02814441  .00000910  00000-0  39049-3 0  9991
TLE2=2 25414  44.9941 264.3647 0003279 196.5281 163.5458 14.31678654864009
